[{"OBJECT_NAME":"FLOCK 4G-23","OBJECT_ID":"2025-009AQ","EPOCH":"2026-03-09T17:11:57.175872","MEAN_MOTION":15.27262579,"ECCENTRICITY":9.048e-5,"INCLINATION":97.3979,"RA_OF_ASC_NODE":150.9478,"ARG_OF_PERICENTER":7.2707,"MEAN_ANOMALY":352.8545,"EPHEMERIS_TYPE":0,"CLASSIFICATION_TYPE":"U","NORAD_CAT_ID":62647,"ELEMENT_SET_NO":999,"REV_AT_EPOCH":6372,"BSTAR":0.00046815788,"MEAN_MOTION_DOT":0.0001244,"MEAN_MOTION_DDOT":0},{"OBJECT_NAME":"STARLINK-36445","OBJECT_ID":"2026-002J","EPOCH":"2026-03-09T02:12:43.678944","MEAN_MOTION":15.27599119,"ECCENTRICITY":0.00010369,"INCLINATION":43.0014,"RA_OF_ASC_NODE":328.981,"ARG_OF_PERICENTER":287.6942,"MEAN_ANOMALY":72.3796,"EPHEMERIS_TYPE":0,"CLASSIFICATION_TYPE":"U","NORAD_CAT_ID":67313,"ELEMENT_SET_NO":999,"REV_AT_EPOCH":1114,"BSTAR":0.0009990029,"MEAN_MOTION_DOT":0.00027346,"MEAN_MOTION_DDOT":0}]
